     2              NAVIGATION DATA                         RINEX VERSION / TYPE
CCRINEXN V1.6.0 UX  CDDIS               30-APR-20 19:31     PGM / RUN BY / DATE 
IGS BROADCAST EPHEMERIS FILE                                COMMENT             
    0.9313D-08  0.1490D-07 -0.5960D-07 -0.1192D-06          ION ALPHA           
    0.8806D+05  0.4915D+05 -0.1311D+06 -0.3277D+06          ION BETA            
    0.279396772385D-08 0.710542735760D-14   503808     2103 DELTA-UTC: A0,A1,T,W
    18                                                      LEAP SECONDS        
                                                            END OF HEADER       
 7 20  4 29 14  0  0.0-0.269687734544D-03-0.864019966684D-11 0.000000000000D+00
    0.240000000000D+02 0.227500000000D+02 0.478912805784D-08 0.310997002475D+01
    0.104866921902D-05 0.137010394828D-01 0.861473381519D-05 0.515367298508D+04
    0.309600000000D+06-0.875443220139D-07 0.437284570589D+00-0.227242708206D-06
    0.953684356553D+00 0.211281250000D+03-0.240350549787D+01-0.785032699763D-08
   -0.296083761649D-09 0.100000000000D+01 0.210300000000D+04 0.000000000000D+00
    0.200000000000D+01 0.000000000000D+00-0.111758708954D-07 0.240000000000D+02
    0.303068000000D+06 0.400000000000D+01 0.000000000000D+00 0.000000000000D+00
 8 20  4 29 14  0  0.0-0.322894193232D-04-0.125055521494D-11 0.000000000000D+00
    0.200000000000D+02 0.317812500000D+02 0.436339603867D-08-0.132435599400D+00
    0.152364373207D-05 0.534128223080D-02 0.386312603950D-05 0.515365896797D+04
    0.309600000000D+06 0.800937414169D-07 0.250539981212D+01 0.186264514923D-08
    0.969814513239D+00 0.309656250000D+03-0.946811728337D-01-0.822677124947D-08
   -0.964325882329D-10 0.100000000000D+01 0.210300000000D+04 0.000000000000D+00
    0.200000000000D+01 0.000000000000D+00 0.512227416039D-08 0.200000000000D+02
    0.302958000000D+06 0.400000000000D+01 0.000000000000D+00 0.000000000000D+00
 9 20  4 29 14  0  0.0-0.207508914173D-03-0.750333128963D-11 0.000000000000D+00
    0.160000000000D+02 0.471875000000D+01 0.494734893408D-08 0.680646818415D-01
   -0.111758708954D-07 0.155089981854D-02 0.730715692043D-05 0.515373871040D+04
    0.309600000000D+06 0.111758708954D-07-0.636591126770D+00 0.372529029846D-07
    0.952707643686D+00 0.232000000000D+03 0.180734924248D+01-0.819355558019D-08
    0.243938732456D-09 0.100000000000D+01 0.210300000000D+04 0.000000000000D+00
    0.200000000000D+01 0.000000000000D+00 0.139698386192D-08 0.160000000000D+02
    0.307788000000D+06 0.400000000000D+01 0.000000000000D+00 0.000000000000D+00
12 20  4 29 14  0  0.0 0.123700592667D-03-0.432009983342D-11 0.000000000000D+00
    0.980000000000D+02 0.950937500000D+02 0.395695053716D-08 0.242221286270D+01
    0.463612377644D-05 0.811703572981D-02 0.759400427341D-05 0.515371077347D+04
    0.309600000000D+06-0.931322574616D-08 0.154317176529D+01-0.135973095894D-06
    0.978428052004D+00 0.237562500000D+03 0.114431067514D+01-0.767996275842D-08
   -0.203222750758D-09 0.100000000000D+01 0.210300000000D+04 0.000000000000D+00
    0.200000000000D+01 0.000000000000D+00-0.125728547573D-07 0.980000000000D+02
    0.302418000000D+06 0.400000000000D+01 0.000000000000D+00 0.000000000000D+00
13 20  4 29 14  0  0.0 0.600051134825D-05 0.295585778076D-11 0.000000000000D+00
    0.103000000000D+03 0.656250000000D+00 0.465055085697D-08-0.104114830058D+01
    0.175088644028D-06 0.410948495846D-02 0.735372304916D-05 0.515365333176D+04
    0.309600000000D+06 0.204890966415D-07-0.494170578977D+00 0.100582838059D-06
    0.967976851138D+00 0.242687500000D+03 0.110041596739D+01-0.797247494272D-08
    0.126790995640D-09 0.100000000000D+01 0.210300000000D+04 0.000000000000D+00
    0.200000000000D+01 0.000000000000D+00-0.111758708954D-07 0.103000000000D+03
    0.302418000000D+06 0.400000000000D+01 0.000000000000D+00 0.000000000000D+00
14 20  4 29 14  0  0.0-0.163810327649D-04 0.250111042988D-11 0.000000000000D+00
    0.790000000000D+02 0.475000000000D+01 0.485984528921D-08-0.518596003434D+00
    0.353902578354D-06 0.113408479374D-01 0.767223536968D-05 0.515363137817D+04
    0.309600000000D+06-0.968575477600D-07-0.540935804102D+00 0.119209289551D-06
    0.960538707070D+00 0.236437500000D+03-0.191977349185D+01-0.819962726167D-08
    0.226438003480D-09 0.100000000000D+01 0.210300000000D+04 0.000000000000D+00
    0.200000000000D+01 0.000000000000D+00-0.977888703346D-08 0.790000000000D+02
    0.302418000000D+06 0.400000000000D+01 0.000000000000D+00 0.000000000000D+00
15 20  4 29 14  0  0.0-0.234652310610D-03 0.261479726760D-11 0.000000000000D+00
    0.410000000000D+02 0.156250000000D+01 0.550022910662D-08-0.112841926230D+01
    0.346451997757D-06 0.122350940946D-01 0.708736479282D-05 0.515366631126D+04
    0.309600000000D+06 0.266358256340D-06-0.725346431007D+00 0.188127160072D-06
    0.928179844222D+00 0.220500000000D+03 0.873746205871D+00-0.841927926820D-08
    0.285726187357D-09 0.100000000000D+01 0.210300000000D+04 0.000000000000D+00
    0.200000000000D+01 0.000000000000D+00-0.111758708954D-07 0.410000000000D+02
    0.302418000000D+06 0.400000000000D+01 0.000000000000D+00 0.000000000000D+00
16 20  4 29 14  0  0.0-0.152267049998D-03-0.443378667114D-11 0.000000000000D+00
    0.520000000000D+02 0.770625000000D+02 0.414552982081D-08 0.589269040415D+00
    0.433623790741D-05 0.115223824978D-01 0.777095556259D-05 0.515375488663D+04
    0.309600000000D+06-0.558793544769D-07 0.156204413704D+01 0.173225998878D-06
    0.978663340434D+00 0.236593750000D+03 0.629292318334D+00-0.798461830569D-08
   -0.259296515026D-09 0.100000000000D+01 0.210300000000D+04 0.000000000000D+00
    0.200000000000D+01 0.000000000000D+00-0.107102096081D-07 0.520000000000D+02
    0.302418000000D+06 0.400000000000D+01 0.000000000000D+00 0.000000000000D+00
17 20  4 29 14  0  0.0 0.256677158177D-03 0.613908923697D-11 0.000000000000D+00
    0.550000000000D+02 0.150937500000D+02 0.415124434456D-08-0.364674318469D+00
    0.881031155586D-06 0.132336631650D-01 0.363588333130D-05 0.515369065857D+04
    0.309600000000D+06-0.115483999252D-06 0.257767472392D+01 0.128522515297D-06
    0.984110460311D+00 0.324875000000D+03-0.164344232532D+01-0.829177395710D-08
   -0.335728270144D-10 0.100000000000D+01 0.210300000000D+04 0.000000000000D+00
    0.200000000000D+01 0.000000000000D+00-0.111758708954D-07 0.550000000000D+02
    0.304056000000D+06 0.400000000000D+01 0.000000000000D+00 0.000000000000D+00
18 20  4 29 14  0  0.0 0.173177104443D-03 0.128466126625D-10 0.000000000000D+00
    0.123000000000D+03-0.905000000000D+02 0.433053752713D-08-0.209225933221D+01
   -0.465661287308D-05 0.579921994358D-03 0.539608299732D-05 0.515434700775D+04
    0.309600000000D+06 0.242143869400D-07-0.269095640420D+01 0.875443220139D-07
    0.963601485527D+00 0.278000000000D+03 0.289249528852D+01-0.809569436102D-08
   -0.171435712414D-10 0.100000000000D+01 0.210300000000D+04 0.000000000000D+00
    0.200000000000D+01 0.000000000000D+00-0.465661287308D-08 0.635000000000D+03
    0.305208000000D+06 0.400000000000D+01 0.000000000000D+00 0.000000000000D+00
19 20  4 29 14  0  0.0-0.165532343090D-03 0.511590769747D-11 0.000000000000D+00
    0.150000000000D+02 0.759375000000D+01 0.408588447920D-08 0.231013558240D+01
    0.314787030220D-06 0.937173992861D-02 0.279583036900D-05 0.515368589020D+04
    0.309600000000D+06 0.171363353729D-06 0.262334660357D+01-0.558793544769D-07
    0.982297733649D+00 0.332968750000D+03 0.160026515402D+01-0.793318759196D-08
   -0.147148986489D-09 0.100000000000D+01 0.210300000000D+04 0.000000000000D+00
    0.200000000000D+01 0.000000000000D+00-0.153668224812D-07 0.150000000000D+02
    0.306252000000D+06 0.400000000000D+01 0.000000000000D+00 0.000000000000D+00
20 20  4 29 14  0  0.0 0.527759082615D-03-0.113686837722D-12 0.000000000000D+00
    0.670000000000D+02-0.743437500000D+02 0.485591655413D-08-0.296709554810D+01
   -0.361353158951D-05 0.506204413250D-02 0.881031155586D-05 0.515364650345D+04
    0.309600000000D+06-0.484287738800D-07-0.180098705418D+01 0.596046447754D-07
    0.933429433586D+00 0.191906250000D+03 0.264896598130D+01-0.809855162290D-08
    0.328585115460D-09 0.100000000000D+01 0.210300000000D+04 0.000000000000D+00
    0.200000000000D+01 0.000000000000D+00-0.884756445885D-08 0.670000000000D+02
    0.302418000000D+06 0.400000000000D+01 0.000000000000D+00 0.000000000000D+00
21 20  4 29 14  0  0.0-0.788830220699D-05 0.488853402203D-11 0.000000000000D+00
    0.680000000000D+02-0.884687500000D+02 0.446947188573D-08 0.204822520690D+01
   -0.471994280815D-05 0.246688664192D-01 0.382959842682D-05 0.515352285767D+04
    0.309600000000D+06 0.426545739174D-06-0.278195263853D+01 0.931322574616D-08
    0.952998239196D+00 0.296468750000D+03-0.133507036651D+01-0.789997192268D-08
   -0.171435712414D-09 0.100000000000D+01 0.210300000000D+04 0.000000000000D+00
    0.200000000000D+01 0.000000000000D+00-0.102445483208D-07 0.680000000000D+02
    0.302418000000D+06 0.400000000000D+01 0.000000000000D+00 0.000000000000D+00
22 20  4 29 14  0  0.0-0.783732160926D-03 0.909494701773D-12 0.000000000000D+00
    0.670000000000D+02-0.520000000000D+02 0.501056585304D-08-0.116278594803D+01
   -0.265054404736D-05 0.721493549645D-02 0.886619091034D-05 0.515351691818D+04
    0.309600000000D+06-0.912696123123D-07-0.175342394037D+01 0.838190317154D-07
    0.930109613107D+00 0.195656250000D+03-0.117520512627D+01-0.829498837670D-08
    0.391802034413D-09 0.100000000000D+01 0.210300000000D+04 0.000000000000D+00
    0.200000000000D+01 0.000000000000D+00-0.181607902050D-07 0.670000000000D+02
    0.302418000000D+06 0.400000000000D+01 0.000000000000D+00 0.000000000000D+00
